SAR-LUPE 2              
1 31797U 07030A   26202.25041491  .00031943  00000+0  48371-3 0  9990
2 31797  98.1058 311.0410 0005291 216.3213 143.7680 15.54598083 62224
SAPPHIRE                
1 39088U 13009C   26202.25237959  .00000073  00000+0  40576-4 0  9990
2 39088  98.4280  20.9022 0011933 142.8209 217.3805 14.35248675701468
PRAETORIAN SDA_602      
1 65565U 25203A   26201.78542242  .00000082  00000+0  63149-4 0  9990
2 65565  81.3051 339.6619 0007141 104.9124 255.2824 13.83888594 43347
PRAETORIAN SDA_603      
1 65566U 25203B   26201.88570623  .00000135  00000+0  11057-3 0  9995
2 65566  81.3059 339.4898 0010793 100.6155 259.6218 13.83961891 43366
PRAETORIAN SDA_604      
1 65567U 25203C   26201.85467603  .00000093  00000+0  74550-4 0  9997
2 65567  81.3073 339.9840 0006672 108.6980 251.4900 13.83050859 43338
PRAETORIAN SDA_605      
1 65568U 25203D   26201.81375120  .00000095  00000+0  75347-4 0  9993
2 65568  81.3038 339.6591 0009373  99.8901 260.3314 13.83200878 43342
PRAETORIAN SDA_606      
1 65569U 25203E   26201.87126176  .00000045  00000+0  30142-4 0  9994
2 65569  81.3074 339.8462 0007239 103.1806 257.0159 13.83200315 43340
PRAETORIAN SDA_607      
1 65570U 25203F   26201.78702470  .00000094  00000+0  73828-4 0  9995
2 65570  81.3060 339.5383 0010043 101.2715 258.9570 13.83759000 43359
PRAETORIAN SDA_608      
1 65571U 25203G   26201.91390846  .00000084  00000+0  65179-4 0  9990
2 65571  81.3027 339.5821 0007150 107.0692 253.1248 13.83820120 43354
PRAETORIAN SDA_609      
1 65572U 25203H   26202.12611664  .00000207  00000+0  17471-3 0  9997
2 65572  81.3068 339.3626 0008066 101.6672 258.5391 13.84212067 43394
PRAETORIAN SDA_610      
1 65573U 25203J   26201.89700869  .00000097  00000+0  77211-4 0  9993
2 65573  81.3029 339.5635 0007875 106.5095 253.6927 13.83529026 43356
PRAETORIAN SDA_611      
1 65574U 25203K   26202.12380516  .00000091  00000+0  71625-4 0  9991
2 65574  81.3032 339.5387 0006772 110.2443 249.9442 13.83310725 43375
PRAETORIAN SDA_612      
1 65575U 25203L   26202.14330918  .00000146  00000+0  11822-3 0  9998
2 65575  81.3050 339.0233 0010384 100.6215 259.6113 13.85042253 43413
PRAETORIAN SDA_613      
1 65576U 25203M   26202.14388111  .00000082  00000+0  64844-4 0  9999
2 65576  81.3020 339.5431 0006824 101.6423 258.5500 13.82768392 43371
PRAETORIAN SDA_614      
1 65577U 25203N   26202.13890291  .00000059  00000+0  41914-4 0  9993
2 65577  81.3034 339.1136 0008292  99.3590 260.8505 13.84779003 43413
PRAETORIAN SDA_615      
1 65578U 25203P   26201.90732876  .00000156  00000+0  12849-3 0  9994
2 65578  81.3042 339.3133 0010204 100.1160 260.1149 13.84438841 43376
PRAETORIAN SDA_616      
1 65579U 25203Q   26202.12402848  .00000148  00000+0  12375-3 0  9998
2 65579  81.3086 339.7059 0006703 108.5374 251.6511 13.83270271 43372
PRAETORIAN SDA_617      
1 65580U 25203R   26202.07618873  .00000078  00000+0  60049-4 0  9995
2 65580  81.3058 339.5782 0008534  99.8298 260.3822 13.83152777 43377
PRAETORIAN SDA_618      
1 65581U 25203S   26201.87555257  .00000137  00000+0  11221-3 0  9992
2 65581  81.3041 339.2765 0010899 103.0450 257.1924 13.84226246 43374
PRAETORIAN SDA_619      
1 65582U 25203T   26201.85237933  .00000117  00000+0  95215-4 0  9993
2 65582  81.3065 339.6317 0009366 101.0451 259.1759 13.83806334 43980
PRAETORIAN SDA_620      
1 65583U 25203U   26202.10692713  .00000197  00000+0  16881-3 0  9993
2 65583  81.3052 339.4317 0008562  98.2973 261.9155 13.83209309 43382
PRAETORIAN SDA_621      
1 65584U 25203V   26202.07113552  .00000092  00000+0  72424-4 0  9999
2 65584  81.3041 339.3598 0008523  95.1638 265.0492 13.83804597 43381
PRAETORIAN SDA_601      
1 65585U 25203W   26202.12961582  .00000295  00000+0  25808-3 0  9998
2 65585  81.3062 339.6412 0006704 111.3652 248.8220 13.83170754 43377
VICTUS HAZE PUMA        
1 69646U 26142A   26201.83709822  .00001963  00000+0  90563-4 0  9991
2 69646  97.4457  99.0756 0026522 246.3407 113.5045 15.21144501  4780
